DELTA 2 R/B(1)          
1 20453U 90008B   26027.55495546  .00074592  00000+0  10292-2 0  9993
2 20453  35.6054  83.6431 0099671 237.3073 121.8017 15.50274110919736
COSMOS 2058             
1 20465U 90010A   26027.59323399  .00005389  00000+0  32113-3 0  9994
2 20465  82.4653  87.9137 0011725 111.7179 248.5300 15.10941344936030
SL-14 R/B               
1 20466U 90010B   26027.74634183  .00000795  00000+0  93385-4 0  9993
2 20466  82.5043 305.8446 0021385  75.8090 284.5499 14.83528760922413
SL-14 R/B               
1 20511U 90018B   26027.58960318  .00000650  00000+0  78774-4 0  9991
2 20511  82.5196 261.5141 0015271 223.8137 136.1867 14.82102212916498
HST                     
1 20580U 90037B   26026.91231925  .00011194  00000+0  38058-3 0  9994
2 20580  28.4681 324.8513 0001798  15.3810 344.6840 15.28781771766910
SL-16 R/B               
1 20625U 90046B   26027.69589279 -.00000215  00000+0 -86235-4 0  9993
2 20625  70.9993  24.0056 0014194 356.3944   3.7074 14.15006567842598
COSMOS 2084             
1 20663U 90055A   26027.67407211  .00004564  00000+0  32881-3 0  9994
2 20663  62.7904 115.4402 0023715 181.7707 178.3314 15.05374795930143
SL-6 R/B(2)             
1 20666U 90055D   26027.80088211  .00004049  00000+0  30998-3 0  9992
2 20666  62.7841  32.8746 0018814 334.3895  25.6270 15.03354506932049
SL-8 R/B                
1 20775U 90078B   26027.69979686  .00022629  00000+0  67478-3 0  9997
2 20775  82.9044 288.1299 0367977 151.3066 210.8961 14.87649524803200
SL-8 R/B                
1 21088U 91006B   26027.71974509  .00000028  00000+0  12698-4 0  9993
2 21088  82.9413 200.5089 0023145 147.4373 223.5270 13.77491974758436
OKEAN-3                 
1 21397U 91039A   26027.44721029  .00006033  00000+0  42823-3 0  9993
2 21397  82.5171  16.7870 0015909 108.4237 251.8721 15.04465807858834
COSMOS 2151             
1 21422U 91042A   26027.79166050  .00003691  00000+0  29497-3 0  9990
2 21422  82.4978 123.1212 0012235 191.1661 168.9294 14.99931296857069
