CCSDS_OMM_VERS = 2.0
CREATION_DATE  = 
ORIGINATOR     = 

OBJECT_NAME    = DELTA 2 R/B(1)
OBJECT_ID      = 1990-008B
CENTER_NAME    = EARTH
REF_FRAME      = TEME
TIME_SYSTEM    = UTC
MEAN_ELEMENT_THEORY = SGP/SGP4

EPOCH          = 2026-01-27T13:19:08.151744
MEAN_MOTION    = 15.50274110
ECCENTRICITY   = .0099671
INCLINATION    = 35.6054
RA_OF_ASC_NODE = 83.6431
ARG_OF_PERICENTER = 237.3073
MEAN_ANOMALY   = 121.8017

EPHEMERIS_TYPE = 0
CLASSIFICATION_TYPE = U
NORAD_CAT_ID   = 20453
ELEMENT_SET_NO = 999
REV_AT_EPOCH   = 91973
BSTAR          = .10292E-2
MEAN_MOTION_DOT = .74592E-3
MEAN_MOTION_DDOT = 0

CCSDS_OMM_VERS = 2.0
CREATION_DATE  = 
ORIGINATOR     = 

OBJECT_NAME    = COSMOS 2058
OBJECT_ID      = 1990-010A
CENTER_NAME    = EARTH
REF_FRAME      = TEME
TIME_SYSTEM    = UTC
MEAN_ELEMENT_THEORY = SGP/SGP4

EPOCH          = 2026-01-27T14:14:15.416736
MEAN_MOTION    = 15.10941344
ECCENTRICITY   = .0011725
INCLINATION    = 82.4653
RA_OF_ASC_NODE = 87.9137
ARG_OF_PERICENTER = 111.7179
MEAN_ANOMALY   = 248.5300

EPHEMERIS_TYPE = 0
CLASSIFICATION_TYPE = U
NORAD_CAT_ID   = 20465
ELEMENT_SET_NO = 999
REV_AT_EPOCH   = 93603
BSTAR          = .32113E-3
MEAN_MOTION_DOT = .5389E-4
MEAN_MOTION_DDOT = 0

CCSDS_OMM_VERS = 2.0
CREATION_DATE  = 
ORIGINATOR     = 

OBJECT_NAME    = SL-14 R/B
OBJECT_ID      = 1990-010B
CENTER_NAME    = EARTH
REF_FRAME      = TEME
TIME_SYSTEM    = UTC
MEAN_ELEMENT_THEORY = SGP/SGP4

EPOCH          = 2026-01-27T17:54:43.934112
MEAN_MOTION    = 14.83528760
ECCENTRICITY   = .0021385
INCLINATION    = 82.5043
RA_OF_ASC_NODE = 305.8446
ARG_OF_PERICENTER = 75.8090
MEAN_ANOMALY   = 284.5499

EPHEMERIS_TYPE = 0
CLASSIFICATION_TYPE = U
NORAD_CAT_ID   = 20466
ELEMENT_SET_NO = 999
REV_AT_EPOCH   = 92241
BSTAR          = .93385E-4
MEAN_MOTION_DOT = .795E-5
MEAN_MOTION_DDOT = 0

CCSDS_OMM_VERS = 2.0
CREATION_DATE  = 
ORIGINATOR     = 

OBJECT_NAME    = SL-14 R/B
OBJECT_ID      = 1990-018B
CENTER_NAME    = EARTH
REF_FRAME      = TEME
TIME_SYSTEM    = UTC
MEAN_ELEMENT_THEORY = SGP/SGP4

EPOCH          = 2026-01-27T14:09:01.714752
MEAN_MOTION    = 14.82102212
ECCENTRICITY   = .0015271
INCLINATION    = 82.5196
RA_OF_ASC_NODE = 261.5141
ARG_OF_PERICENTER = 223.8137
MEAN_ANOMALY   = 136.1867

EPHEMERIS_TYPE = 0
CLASSIFICATION_TYPE = U
NORAD_CAT_ID   = 20511
ELEMENT_SET_NO = 999
REV_AT_EPOCH   = 91649
BSTAR          = .78774E-4
MEAN_MOTION_DOT = .65E-5
MEAN_MOTION_DDOT = 0

CCSDS_OMM_VERS = 2.0
CREATION_DATE  = 
ORIGINATOR     = 

OBJECT_NAME    = HST
OBJECT_ID      = 1990-037B
CENTER_NAME    = EARTH
REF_FRAME      = TEME
TIME_SYSTEM    = UTC
MEAN_ELEMENT_THEORY = SGP/SGP4

EPOCH          = 2026-01-26T21:53:44.383200
MEAN_MOTION    = 15.28781771
ECCENTRICITY   = .0001798
INCLINATION    = 28.4681
RA_OF_ASC_NODE = 324.8513
ARG_OF_PERICENTER = 15.3810
MEAN_ANOMALY   = 344.6840

EPHEMERIS_TYPE = 0
CLASSIFICATION_TYPE = U
NORAD_CAT_ID   = 20580
ELEMENT_SET_NO = 999
REV_AT_EPOCH   = 76691
BSTAR          = .38058E-3
MEAN_MOTION_DOT = .11194E-3
MEAN_MOTION_DDOT = 0

CCSDS_OMM_VERS = 2.0
CREATION_DATE  = 
ORIGINATOR     = 

OBJECT_NAME    = SL-16 R/B
OBJECT_ID      = 1990-046B
CENTER_NAME    = EARTH
REF_FRAME      = TEME
TIME_SYSTEM    = UTC
MEAN_ELEMENT_THEORY = SGP/SGP4

EPOCH          = 2026-01-27T16:42:05.137056
MEAN_MOTION    = 14.15006567
ECCENTRICITY   = .0014194
INCLINATION    = 70.9993
RA_OF_ASC_NODE = 24.0056
ARG_OF_PERICENTER = 356.3944
MEAN_ANOMALY   = 3.7074

EPHEMERIS_TYPE = 0
CLASSIFICATION_TYPE = U
NORAD_CAT_ID   = 20625
ELEMENT_SET_NO = 999
REV_AT_EPOCH   = 84259
BSTAR          = -.86235E-4
MEAN_MOTION_DOT = -.215E-5
MEAN_MOTION_DDOT = 0

CCSDS_OMM_VERS = 2.0
CREATION_DATE  = 
ORIGINATOR     = 

OBJECT_NAME    = COSMOS 2084
OBJECT_ID      = 1990-055A
CENTER_NAME    = EARTH
REF_FRAME      = TEME
TIME_SYSTEM    = UTC
MEAN_ELEMENT_THEORY = SGP/SGP4

EPOCH          = 2026-01-27T16:10:39.830304
MEAN_MOTION    = 15.05374795
ECCENTRICITY   = .0023715
INCLINATION    = 62.7904
RA_OF_ASC_NODE = 115.4402
ARG_OF_PERICENTER = 181.7707
MEAN_ANOMALY   = 178.3314

EPHEMERIS_TYPE = 0
CLASSIFICATION_TYPE = U
NORAD_CAT_ID   = 20663
ELEMENT_SET_NO = 999
REV_AT_EPOCH   = 93014
BSTAR          = .32881E-3
MEAN_MOTION_DOT = .4564E-4
MEAN_MOTION_DDOT = 0

CCSDS_OMM_VERS = 2.0
CREATION_DATE  = 
ORIGINATOR     = 

OBJECT_NAME    = SL-6 R/B(2)
OBJECT_ID      = 1990-055D
CENTER_NAME    = EARTH
REF_FRAME      = TEME
TIME_SYSTEM    = UTC
MEAN_ELEMENT_THEORY = SGP/SGP4

EPOCH          = 2026-01-27T19:13:16.214304
MEAN_MOTION    = 15.03354506
ECCENTRICITY   = .0018814
INCLINATION    = 62.7841
RA_OF_ASC_NODE = 32.8746
ARG_OF_PERICENTER = 334.3895
MEAN_ANOMALY   = 25.6270

EPHEMERIS_TYPE = 0
CLASSIFICATION_TYPE = U
NORAD_CAT_ID   = 20666
ELEMENT_SET_NO = 999
REV_AT_EPOCH   = 93204
BSTAR          = .30998E-3
MEAN_MOTION_DOT = .4049E-4
MEAN_MOTION_DDOT = 0

CCSDS_OMM_VERS = 2.0
CREATION_DATE  = 
ORIGINATOR     = 

OBJECT_NAME    = SL-8 R/B
OBJECT_ID      = 1990-078B
CENTER_NAME    = EARTH
REF_FRAME      = TEME
TIME_SYSTEM    = UTC
MEAN_ELEMENT_THEORY = SGP/SGP4

EPOCH          = 2026-01-27T16:47:42.448704
MEAN_MOTION    = 14.87649524
ECCENTRICITY   = .0367977
INCLINATION    = 82.9044
RA_OF_ASC_NODE = 288.1299
ARG_OF_PERICENTER = 151.3066
MEAN_ANOMALY   = 210.8961

EPHEMERIS_TYPE = 0
CLASSIFICATION_TYPE = U
NORAD_CAT_ID   = 20775
ELEMENT_SET_NO = 999
REV_AT_EPOCH   = 80320
BSTAR          = .67478E-3
MEAN_MOTION_DOT = .22629E-3
MEAN_MOTION_DDOT = 0

CCSDS_OMM_VERS = 2.0
CREATION_DATE  = 
ORIGINATOR     = 

OBJECT_NAME    = SL-8 R/B
OBJECT_ID      = 1991-006B
CENTER_NAME    = EARTH
REF_FRAME      = TEME
TIME_SYSTEM    = UTC
MEAN_ELEMENT_THEORY = SGP/SGP4

EPOCH          = 2026-01-27T17:16:25.975776
MEAN_MOTION    = 13.77491974
ECCENTRICITY   = .0023145
INCLINATION    = 82.9413
RA_OF_ASC_NODE = 200.5089
ARG_OF_PERICENTER = 147.4373
MEAN_ANOMALY   = 223.5270

EPHEMERIS_TYPE = 0
CLASSIFICATION_TYPE = U
NORAD_CAT_ID   = 21088
ELEMENT_SET_NO = 999
REV_AT_EPOCH   = 75843
BSTAR          = .12698E-4
MEAN_MOTION_DOT = .28E-6
MEAN_MOTION_DDOT = 0

CCSDS_OMM_VERS = 2.0
CREATION_DATE  = 
ORIGINATOR     = 

OBJECT_NAME    = OKEAN-3
OBJECT_ID      = 1991-039A
CENTER_NAME    = EARTH
REF_FRAME      = TEME
TIME_SYSTEM    = UTC
MEAN_ELEMENT_THEORY = SGP/SGP4

EPOCH          = 2026-01-27T10:43:58.969056
MEAN_MOTION    = 15.04465807
ECCENTRICITY   = .00159091
INCLINATION    = 82.5171
RA_OF_ASC_NODE = 16.7870
ARG_OF_PERICENTER = 108.4237
MEAN_ANOMALY   = 251.8721

EPHEMERIS_TYPE = 0
CLASSIFICATION_TYPE = U
NORAD_CAT_ID   = 21397
ELEMENT_SET_NO = 999
REV_AT_EPOCH   = 85883
BSTAR          = .42823194E-3
MEAN_MOTION_DOT = .6033E-4
MEAN_MOTION_DDOT = 0

CCSDS_OMM_VERS = 2.0
CREATION_DATE  = 
ORIGINATOR     = 

OBJECT_NAME    = COSMOS 2151
OBJECT_ID      = 1991-042A
CENTER_NAME    = EARTH
REF_FRAME      = TEME
TIME_SYSTEM    = UTC
MEAN_ELEMENT_THEORY = SGP/SGP4

EPOCH          = 2026-01-27T18:59:59.467200
MEAN_MOTION    = 14.99931296
ECCENTRICITY   = .0012235
INCLINATION    = 82.4978
RA_OF_ASC_NODE = 123.1212
ARG_OF_PERICENTER = 191.1661
MEAN_ANOMALY   = 168.9294

EPHEMERIS_TYPE = 0
CLASSIFICATION_TYPE = U
NORAD_CAT_ID   = 21422
ELEMENT_SET_NO = 999
REV_AT_EPOCH   = 85706
BSTAR          = .29497E-3
MEAN_MOTION_DOT = .3691E-4
MEAN_MOTION_DDOT = 0

